[
  {
    "COMMENT": "GENERATED VIA SPACETRACK.ORG API",
    "ORIGINATOR": "18 SPCS",
    "NORAD_CAT_ID": "46984",
    "OBJECT_NAME": "S6 MICHAEL FREILICH",
    "OBJECT_TYPE": "PAYLOAD",
    "CLASSIFICATION_TYPE": "U",
    "INTLDES": "20086A",
    "EPOCH": "2021-12-16 06:35:42",
    "EPOCH_MICROSECONDS": "284544",
    "MEAN_MOTION": "12.80929759",
    "ECCENTRICITY": "0.0007836",
    "INCLINATION": "66.0435",
    "RA_OF_ASC_NODE": "309.4939",
    "ARG_OF_PERICENTER": "264.4261",
    "MEAN_ANOMALY": "95.5852",
    "EPHEMERIS_TYPE": "0",
    "ELEMENT_SET_NO": "999",
    "REV_AT_EPOCH": "4990",
    "BSTAR": "0",
    "MEAN_MOTION_DOT": "-0.00000061",
    "MEAN_MOTION_DDOT": "0",
    "FILE": "3241842",
    "TLE_LINE0": "0 S6 MICHAEL FREILICH",
    "TLE_LINE1": "1 46984U 20086A   21350.27479496 -.00000061  00000-0  00000+0 0  9993",
    "TLE_LINE2": "2 46984  66.0435 309.4939 0007836 264.4261  95.5852 12.80929759 49901",
    "OBJECT_ID": "2020-086A",
    "OBJECT_NUMBER": "46984",
    "SEMIMAJOR_AXIS": "7715.871",
    "PERIOD": "112.418",
    "APOGEE": "1343.782",
    "PERIGEE": "1331.690",
    "DECAYED": "0"
  },
  {
    "COMMENT": "GENERATED VIA SPACETRACK.ORG API",
    "ORIGINATOR": "18 SPCS",
    "NORAD_CAT_ID": "46984",
    "OBJECT_NAME": "S6 MICHAEL FREILICH",
    "OBJECT_TYPE": "PAYLOAD",
    "CLASSIFICATION_TYPE": "U",
    "INTLDES": "20086A",
    "EPOCH": "2021-12-16 21:35:08",
    "EPOCH_MICROSECONDS": "403648",
    "MEAN_MOTION": "12.80929779",
    "ECCENTRICITY": "0.0007852",
    "INCLINATION": "66.0435",
    "RA_OF_ASC_NODE": "308.1968",
    "ARG_OF_PERICENTER": "264.2961",
    "MEAN_ANOMALY": "95.7163",
    "EPHEMERIS_TYPE": "0",
    "ELEMENT_SET_NO": "999",
    "REV_AT_EPOCH": "4998",
    "BSTAR": "0",
    "MEAN_MOTION_DOT": "-0.00000061",
    "MEAN_MOTION_DDOT": "0",
    "FILE": "3242223",
    "TLE_LINE0": "0 S6 MICHAEL FREILICH",
    "TLE_LINE1": "1 46984U 20086A   21350.89940282 -.00000061  00000-0  00000-0 0  9998",
    "TLE_LINE2": "2 46984  66.0435 308.1968 0007852 264.2961  95.7163 12.80929779 49989",
    "OBJECT_ID": "2020-086A",
    "OBJECT_NUMBER": "46984",
    "SEMIMAJOR_AXIS": "7715.871",
    "PERIOD": "112.418",
    "APOGEE": "1343.795",
    "PERIGEE": "1331.678",
    "DECAYED": "0"
  },
  {
    "COMMENT": "GENERATED VIA SPACETRACK.ORG API",
    "ORIGINATOR": "18 SPCS",
    "NORAD_CAT_ID": "46984",
    "OBJECT_NAME": "S6 MICHAEL FREILICH",
    "OBJECT_TYPE": "PAYLOAD",
    "CLASSIFICATION_TYPE": "U",
    "INTLDES": "20086A",
    "EPOCH": "2021-12-17 06:57:17",
    "EPOCH_MICROSECONDS": "206272",
    "MEAN_MOTION": "12.8092979",
    "ECCENTRICITY": "0.0007836",
    "INCLINATION": "66.0436",
    "RA_OF_ASC_NODE": "307.3857",
    "ARG_OF_PERICENTER": "264.4382",
    "MEAN_ANOMALY": "95.5738",
    "EPHEMERIS_TYPE": "0",
    "ELEMENT_SET_NO": "999",
    "REV_AT_EPOCH": "5003",
    "BSTAR": "0",
    "MEAN_MOTION_DOT": "-0.00000061",
    "MEAN_MOTION_DDOT": "0",
    "FILE": "3242714",
    "TLE_LINE0": "0 S6 MICHAEL FREILICH",
    "TLE_LINE1": "1 46984U 20086A   21351.28978248 -.00000061  00000-0  00000+0 0  9994",
    "TLE_LINE2": "2 46984  66.0436 307.3857 0007836 264.4382  95.5738 12.80929790 50036",
    "OBJECT_ID": "2020-086A",
    "OBJECT_NUMBER": "46984",
    "SEMIMAJOR_AXIS": "7715.871",
    "PERIOD": "112.418",
    "APOGEE": "1343.782",
    "PERIGEE": "1331.690",
    "DECAYED": "0"
  },
  {
    "COMMENT": "GENERATED VIA SPACETRACK.ORG API",
    "ORIGINATOR": "18 SPCS",
    "NORAD_CAT_ID": "46984",
    "OBJECT_NAME": "S6 MICHAEL FREILICH",
    "OBJECT_TYPE": "PAYLOAD",
    "CLASSIFICATION_TYPE": "U",
    "INTLDES": "20086A",
    "EPOCH": "2021-12-17 14:27:00",
    "EPOCH_MICROSECONDS": "259776",
    "MEAN_MOTION": "12.8092979",
    "ECCENTRICITY": "0.0007833",
    "INCLINATION": "66.0434",
    "RA_OF_ASC_NODE": "306.737",
    "ARG_OF_PERICENTER": "264.3211",
    "MEAN_ANOMALY": "95.6913",
    "EPHEMERIS_TYPE": "0",
    "ELEMENT_SET_NO": "999",
    "REV_AT_EPOCH": "5007",
    "BSTAR": "0",
    "MEAN_MOTION_DOT": "-0.00000061",
    "MEAN_MOTION_DDOT": "0",
    "FILE": "3242789",
    "TLE_LINE0": "0 S6 MICHAEL FREILICH",
    "TLE_LINE1": "1 46984U 20086A   21351.60208634 -.00000061  00000-0  00000+0 0  9995",
    "TLE_LINE2": "2 46984  66.0434 306.7370 0007833 264.3211  95.6913 12.80929790 50074",
    "OBJECT_ID": "2020-086A",
    "OBJECT_NUMBER": "46984",
    "SEMIMAJOR_AXIS": "7715.871",
    "PERIOD": "112.418",
    "APOGEE": "1343.780",
    "PERIGEE": "1331.692",
    "DECAYED": "0"
  },
  {
    "COMMENT": "GENERATED VIA SPACETRACK.ORG API",
    "ORIGINATOR": "18 SPCS",
    "NORAD_CAT_ID": "46984",
    "OBJECT_NAME": "S6 MICHAEL FREILICH",
    "OBJECT_TYPE": "PAYLOAD",
    "CLASSIFICATION_TYPE": "U",
    "INTLDES": "20086A",
    "EPOCH": "2021-12-17 14:27:00",
    "EPOCH_MICROSECONDS": "259776",
    "MEAN_MOTION": "12.8092979",
    "ECCENTRICITY": "0.0007833",
    "INCLINATION": "66.0434",
    "RA_OF_ASC_NODE": "306.737",
    "ARG_OF_PERICENTER": "264.3211",
    "MEAN_ANOMALY": "95.6913",
    "EPHEMERIS_TYPE": "0",
    "ELEMENT_SET_NO": "999",
    "REV_AT_EPOCH": "5007",
    "BSTAR": "0",
    "MEAN_MOTION_DOT": "-0.00000061",
    "MEAN_MOTION_DDOT": "0",
    "FILE": "3242788",
    "TLE_LINE0": "0 S6 MICHAEL FREILICH",
    "TLE_LINE1": "1 46984U 20086A   21351.60208634 -.00000061  00000-0  00000+0 0  9995",
    "TLE_LINE2": "2 46984  66.0434 306.7370 0007833 264.3211  95.6913 12.80929790 50074",
    "OBJECT_ID": "2020-086A",
    "OBJECT_NUMBER": "46984",
    "SEMIMAJOR_AXIS": "7715.871",
    "PERIOD": "112.418",
    "APOGEE": "1343.780",
    "PERIGEE": "1331.692",
    "DECAYED": "0"
  },
  {
    "COMMENT": "GENERATED VIA SPACETRACK.ORG API",
    "ORIGINATOR": "18 SPCS",
    "NORAD_CAT_ID": "46984",
    "OBJECT_NAME": "S6 MICHAEL FREILICH",
    "OBJECT_TYPE": "PAYLOAD",
    "CLASSIFICATION_TYPE": "U",
    "INTLDES": "20086A",
    "EPOCH": "2021-12-17 14:27:00",
    "EPOCH_MICROSECONDS": "259776",
    "MEAN_MOTION": "12.8092979",
    "ECCENTRICITY": "0.0007833",
    "INCLINATION": "66.0434",
    "RA_OF_ASC_NODE": "306.737",
    "ARG_OF_PERICENTER": "264.3211",
    "MEAN_ANOMALY": "95.6913",
    "EPHEMERIS_TYPE": "0",
    "ELEMENT_SET_NO": "999",
    "REV_AT_EPOCH": "5007",
    "BSTAR": "0",
    "MEAN_MOTION_DOT": "-0.00000061",
    "MEAN_MOTION_DDOT": "0",
    "FILE": "3243045",
    "TLE_LINE0": "0 S6 MICHAEL FREILICH",
    "TLE_LINE1": "1 46984U 20086A   21351.60208634 -.00000061  00000-0  00000-0 0  9996",
    "TLE_LINE2": "2 46984  66.0434 306.7370 0007833 264.3211  95.6913 12.80929790 50074",
    "OBJECT_ID": "2020-086A",
    "OBJECT_NUMBER": "46984",
    "SEMIMAJOR_AXIS": "7715.871",
    "PERIOD": "112.418",
    "APOGEE": "1343.780",
    "PERIGEE": "1331.692",
    "DECAYED": "0"
  },
  {
    "COMMENT": "GENERATED VIA SPACETRACK.ORG API",
    "ORIGINATOR": "18 SPCS",
    "NORAD_CAT_ID": "46984",
    "OBJECT_NAME": "S6 MICHAEL FREILICH",
    "OBJECT_TYPE": "PAYLOAD",
    "CLASSIFICATION_TYPE": "U",
    "INTLDES": "20086A",
    "EPOCH": "2021-12-18 07:18:52",
    "EPOCH_MICROSECONDS": "115904",
    "MEAN_MOTION": "12.80929808",
    "ECCENTRICITY": "0.0007835",
    "INCLINATION": "66.0438",
    "RA_OF_ASC_NODE": "305.2778",
    "ARG_OF_PERICENTER": "264.4473",
    "MEAN_ANOMALY": "95.5645",
    "EPHEMERIS_TYPE": "0",
    "ELEMENT_SET_NO": "999",
    "REV_AT_EPOCH": "5016",
    "BSTAR": "0",
    "MEAN_MOTION_DOT": "-0.00000061",
    "MEAN_MOTION_DDOT": "0",
    "FILE": "3243673",
    "TLE_LINE0": "0 S6 MICHAEL FREILICH",
    "TLE_LINE1": "1 46984U 20086A   21352.30476986 -.00000061  00000-0  00000+0 0  9990",
    "TLE_LINE2": "2 46984  66.0438 305.2778 0007835 264.4473  95.5645 12.80929808 50168",
    "OBJECT_ID": "2020-086A",
    "OBJECT_NUMBER": "46984",
    "SEMIMAJOR_AXIS": "7715.871",
    "PERIOD": "112.418",
    "APOGEE": "1343.781",
    "PERIGEE": "1331.691",
    "DECAYED": "0"
  },
  {
    "COMMENT": "GENERATED VIA SPACETRACK.ORG API",
    "ORIGINATOR": "18 SPCS",
    "NORAD_CAT_ID": "46984",
    "OBJECT_NAME": "S6 MICHAEL FREILICH",
    "OBJECT_TYPE": "PAYLOAD",
    "CLASSIFICATION_TYPE": "U",
    "INTLDES": "20086A",
    "EPOCH": "2021-12-18 07:18:52",
    "EPOCH_MICROSECONDS": "115904",
    "MEAN_MOTION": "12.80929808",
    "ECCENTRICITY": "0.0007835",
    "INCLINATION": "66.0438",
    "RA_OF_ASC_NODE": "305.2778",
    "ARG_OF_PERICENTER": "264.4473",
    "MEAN_ANOMALY": "95.5645",
    "EPHEMERIS_TYPE": "0",
    "ELEMENT_SET_NO": "999",
    "REV_AT_EPOCH": "5016",
    "BSTAR": "0",
    "MEAN_MOTION_DOT": "-0.00000061",
    "MEAN_MOTION_DDOT": "0",
    "FILE": "3243674",
    "TLE_LINE0": "0 S6 MICHAEL FREILICH",
    "TLE_LINE1": "1 46984U 20086A   21352.30476986 -.00000061  00000-0  00000+0 0  9990",
    "TLE_LINE2": "2 46984  66.0438 305.2778 0007835 264.4473  95.5645 12.80929808 50168",
    "OBJECT_ID": "2020-086A",
    "OBJECT_NUMBER": "46984",
    "SEMIMAJOR_AXIS": "7715.871",
    "PERIOD": "112.418",
    "APOGEE": "1343.781",
    "PERIGEE": "1331.691",
    "DECAYED": "0"
  }
]